NORAD_CAT_ID,OBJECT_NAME,OBJECT_TYPE,EPOCH,MEAN_MOTION,ECCENTRICITY,INCLINATION,RA_OF_ASC_NODE,ARG_OF_PERICENTER,MEAN_ANOMALY,BSTAR,MEAN_MOTION_DOT,MEAN_MOTION_DDOT,TLE_LINE0,TLE_LINE1,TLE_LINE2,SEMIMAJOR_AXIS,PERIOD,APOGEE,PERIGEE,DECAYED
53433.0,STARLINK-4549,PAYLOAD,2023-08-13 16:03:40,15.08835391,8.68e-05,53.2177,359.5474,71.1961,288.9125,-2.159e-05,-6.31e-06,0.0,0 STARLINK-4549,1 53433U 22097AX  23225.66921341 -.00000631  00000-0 -21590-4 0  9997,2 53433  53.2177 359.5474 0000868  71.1961 288.9125 15.08835391 56547,6917.894,95.438,540.36,539.159,0.0
53433.0,STARLINK-4549,PAYLOAD,2023-08-15 01:26:45,15.08846452,6.77e-05,53.2183,353.3027,86.712,273.395,0.00022232,3.253e-05,0.0,0 STARLINK-4549,1 53433U 22097AX  23227.06024979  .00003253  00000-0  22232-3 0  9998,2 53433  53.2183 353.3027 0000677  86.7120 273.3950 15.08846452 56754,6917.861,95.437,540.194,539.257,0.0
53433.0,STARLINK-4549,PAYLOAD,2023-08-16 07:39:05,15.08846682,0.0002403,53.213,347.6548,68.7105,291.4144,0.00023281,3.42e-05,0.0,0 STARLINK-4549,1 53433U 22097AX  23228.31881503  .00003420  00000-0  23281-3 0  9992,2 53433  53.2130 347.6548 0002403  68.7105 291.4144 15.08846682 56944,6917.86,95.437,541.387,538.063,0.0
53433.0,STARLINK-4549,PAYLOAD,2023-08-17 17:02:11,15.08850063,9.95e-05,53.2174,341.4071,99.1372,260.9732,0.00025333,3.747e-05,0.0,0 STARLINK-4549,1 53433U 22097AX  23229.70984981  .00003747  00000-0  25333-3 0  9992,2 53433  53.2174 341.4071 0000995  99.1372 260.9732 15.08850063 57159,6917.85,95.437,540.403,539.026,0.0
53433.0,STARLINK-4549,PAYLOAD,2023-08-18 10:31:26,15.08836926,9.07e-05,53.218,338.137,108.3235,251.7855,2.1024e-05,4.7e-07,0.0,0 STARLINK-4549,1 53433U 22097AX  23230.43849652  .00000047  00000-0  21024-4 0  9993,2 53433  53.2180 338.1370 0000907 108.3235 251.7855 15.08836926 57263,6917.89,95.438,540.382,539.127,0.0
53433.0,STARLINK-4549,PAYLOAD,2023-08-18 16:52:58,15.08845563,9.89e-05,53.2175,336.9476,100.4052,259.7052,0.00015213,2.135e-05,0.0,0 STARLINK-4549,1 53433U 22097AX  23230.70345266  .00002135  00000-0  15213-3 0  9997,2 53433  53.2175 336.9476 0000989 100.4052 259.7052 15.08845563 57309,6917.863,95.437,540.413,539.044,0.0
53433.0,STARLINK-4549,PAYLOAD,2023-08-19 11:57:36,15.08843388,9.91e-05,53.2175,333.379,99.8584,260.252,0.00015217,2.135e-05,0.0,0 STARLINK-4549,1 53433U 22097AX  23231.49833428  .00002135  00000-0  15217-3 0  9990,2 53433  53.2175 333.3790 0000991  99.8584 260.2520 15.08843388 57426,6917.87,95.437,540.421,539.049,0.0
53433.0,STARLINK-4549,PAYLOAD,2023-08-20 11:48:23,15.08835434,9.41e-05,53.2176,328.9193,99.5142,260.5957,7.1421e-05,8.49e-06,0.0,0 STARLINK-4549,1 53433U 22097AX  23232.49193957  .00000849  00000-0  71421-4 0  9997,2 53433  53.2176 328.9193 0000941  99.5142 260.5957 15.08835434 57572,6917.894,95.438,540.41,539.108,0.0
53433.0,STARLINK-4549,PAYLOAD,2023-08-22 05:08:25,15.08820581,0.0001141,53.2184,321.1894,77.9258,282.1862,0.00034313,5.174e-05,0.0,0 STARLINK-4549,1 53433U 22097AX  23234.21418363  .00005174  00000-0  34313-3 0  9994,2 53433  53.2184 321.1894 0001141  77.9258 282.1862 15.08820581 57836,6917.94,95.439,540.594,539.015,0.0
53433.0,STARLINK-4549,PAYLOAD,2023-08-22 11:29:57,15.0884164,0.0001049,53.2182,319.9995,84.5341,275.5771,0.0001346,1.855e-05,0.0,0 STARLINK-4549,1 53433U 22097AX  23234.47913992  .00001855  00000-0  13460-3 0  9992,2 53433  53.2182 319.9995 0001049  84.5341 275.5771 15.08841640 57873,6917.875,95.437,540.466,539.015,0.0
53433.0,STARLINK-4549,PAYLOAD,2023-08-23 12:56:07,15.08844193,0.0001006,53.2175,315.2415,101.9326,258.1779,3.7354e-05,3.07e-06,0.0,0 STARLINK-4549,1 53433U 22097AX  23235.53898084  .00000307  00000-0  37354-4 0  9994,2 53433  53.2175 315.2415 0001006 101.9326 258.1779 15.08844193 58031,6917.868,95.437,540.429,539.037,0.0
53433.0,STARLINK-4549,PAYLOAD,2023-08-24 11:11:32,15.08841637,0.000104,53.2168,311.0774,90.0705,270.0407,3.7059e-05,3.02e-06,0.0,0 STARLINK-4549,1 53433U 22097AX  23236.46634316  .00000302  00000-0  37059-4 0  9990,2 53433  53.2168 311.0774 0001040  90.0705 270.0407 15.08841637 58639,6917.875,95.437,540.46,539.021,0.0
53433.0,STARLINK-4549,PAYLOAD,2023-08-25 11:02:19,15.08841706,0.0001103,53.2167,306.6174,83.2379,276.8739,8.2715e-05,1.029e-05,0.0,0 STARLINK-4549,1 53433U 22097AX  23237.45994250  .00001029  00000-0  82715-4 0  9992,2 53433  53.2167 306.6174 0001103  83.2379 276.8739 15.08841706 58328,6917.875,95.437,540.503,538.977,0.0
53433.0,STARLINK-4549,PAYLOAD,2023-08-26 10:53:06,15.08840512,0.0001205,53.2163,302.1575,73.9677,286.1447,8.7083e-05,1.098e-05,0.0,0 STARLINK-4549,1 53433U 22097AX  23238.45354430  .00001098  00000-0  87083-4 0  9992,2 53433  53.2163 302.1575 0001205  73.9677 286.1447 15.08840512 58931,6917.879,95.438,540.577,538.91,0.0
53433.0,STARLINK-4549,PAYLOAD,2023-08-27 02:46:57,15.08838745,0.0001191,53.2163,299.1842,81.5647,278.5481,5.6433e-05,6.1e-06,0.0,0 STARLINK-4549,1 53433U 22097AX  23239.11594596  .00000610  00000-0  56433-4 0  9999,2 53433  53.2163 299.1842 0001191  81.5647 278.5481 15.08838745 58577,6917.884,95.438,540.573,538.925,0.0
53433.0,STARLINK-4549,PAYLOAD,2023-08-27 09:08:30,15.08839639,0.0001147,53.2163,297.9941,89.1797,270.9326,5.7461e-05,6.27e-06,0.0,0 STARLINK-4549,1 53433U 22097AX  23239.38090506  .00000627  00000-0  57461-4 0  9990,2 53433  53.2163 297.9941 0001147  89.1797 270.9326 15.08839639 59077,6917.881,95.438,540.54,538.953,0.0
53433.0,STARLINK-4549,PAYLOAD,2023-08-27 10:43:53,15.08840794,0.0001145,53.2163,297.6966,90.0096,270.1027,6.5403e-05,7.53e-06,0.0,0 STARLINK-4549,1 53433U 22097AX  23239.44714388  .00000753  00000-0  65403-4 0  9993,2 53433  53.2163 297.6966 0001145  90.0096 270.1027 15.08840794 59087,6917.878,95.438,540.535,538.951,0.0
53433.0,STARLINK-4549,PAYLOAD,2023-08-28 10:34:40,15.08838326,0.0001177,53.2161,293.2359,90.5489,269.5638,4.6771e-05,4.57e-06,0.0,0 STARLINK-4549,1 53433U 22097AX  23240.44074615  .00000457  00000-0  46771-4 0  9995,2 53433  53.2161 293.2359 0001177  90.5489 269.5638 15.08838326 58772,6917.886,95.438,540.565,538.936,0.0
53433.0,STARLINK-4549,PAYLOAD,2023-08-28 20:06:59,15.08840104,0.0001188,53.2159,291.4513,90.2971,269.8158,1.3027e-05,-8.1e-07,0.0,0 STARLINK-4549,1 53433U 22097AX  23240.83818578 -.00000081  00000-0  13027-4 0  9994,2 53433  53.2159 291.4513 0001188  90.2971 269.8158 15.08840104 59291,6917.88,95.438,540.567,538.923,0.0
53433.0,STARLINK-4549,PAYLOAD,2023-08-29 10:25:27,15.08837745,0.0001233,53.216,288.7754,92.2434,267.87,7.9873e-05,9.83e-06,0.0,0 STARLINK-4549,1 53433U 22097AX  23241.43434702  .00000983  00000-0  79873-4 0  9995,2 53433  53.2160 288.7754 0001233  92.2434 267.8700 15.08837745 59384,6917.887,95.438,540.605,538.899,0.0
53433.0,STARLINK-4549,PAYLOAD,2023-08-29 23:08:32,15.08835719,0.0001296,53.2163,286.3972,93.0826,267.0314,5.9193e-05,6.54e-06,0.0,0 STARLINK-4549,1 53433U 22097AX  23241.96426948  .00000654  00000-0  59193-4 0  9994,2 53433  53.2163 286.3972 0001296  93.0826 267.0314 15.08835719 59007,6917.893,95.438,540.655,538.862,0.0
53433.0,STARLINK-4549,PAYLOAD,2023-08-30 19:48:33,15.08837235,0.0001283,53.2161,282.5311,91.7554,268.3585,3.6624e-05,2.95e-06,0.0,0 STARLINK-4549,1 53433U 22097AX  23242.82539165  .00000295  00000-0  36624-4 0  9991,2 53433  53.2161 282.5311 0001283  91.7554 268.3585 15.08837235 59592,6917.889,95.438,540.641,538.866,0.0
53433.0,STARLINK-4549,PAYLOAD,2023-08-31 03:45:29,15.08836608,0.0001276,53.2161,281.044,91.5258,268.588,4.888e-05,4.9e-06,0.0,0 STARLINK-4549,1 53433U 22097AX  23243.15659250  .00000490  00000-0  48880-4 0  9990,2 53433  53.2161 281.0440 0001276  91.5258 268.5880 15.08836608 59188,6917.891,95.438,540.638,538.873,0.0
53433.0,STARLINK-4549,PAYLOAD,2023-08-31 11:42:24,15.0884177,0.000128,53.2161,279.5568,89.8175,270.2964,6.7673e-05,7.89e-06,0.0,0 STARLINK-4549,1 53433U 22097AX  23243.48778894  .00000789  00000-0  67673-4 0  9994,2 53433  53.2161 279.5568 0001280  89.8175 270.2964 15.08841770 59699,6917.875,95.437,540.625,538.854,0.0
53433.0,STARLINK-4549,PAYLOAD,2023-09-01 08:22:25,15.08841902,0.0001243,53.2164,275.6904,87.5466,272.5669,1.6903e-06,-2.61e-06,0.0,0 STARLINK-4549,1 53433U 22097AX  23244.34891171 -.00000261  00000-0  16903-5 0  9991,2 53433  53.2164 275.6904 0001243  87.5466 272.5669 15.08841902 59368,6917.875,95.437,540.599,538.88,0.0
53433.0,STARLINK-4549,PAYLOAD,2023-09-01 19:30:07,15.08852548,0.0001369,53.2154,273.6082,112.3643,247.7494,-9.55e-05,-1.808e-05,0.0,0 STARLINK-4549,1 53433U 22097AX  23244.81258560 -.00001808  00000-0 -95500-4 0  9990,2 53433  53.2154 273.6082 0001369 112.3643 247.7494 15.08852548 59431,6917.842,95.437,540.654,538.76,0.0
53433.0,STARLINK-4549,PAYLOAD,2023-09-02 01:51:40,15.08826911,6.85e-05,53.2159,272.4193,96.0016,264.1054,0.00032138,4.829e-05,0.0,0 STARLINK-4549,1 53433U 22097AX  23245.07754980  .00004829  00000-0  32138-3 0  9997,2 53433  53.2159 272.4193 0000685  96.0016 264.1054 15.08826911 59472,6917.92,95.438,540.259,539.312,0.0
53433.0,STARLINK-4549,PAYLOAD,2023-09-02 19:20:54,15.08846628,0.0001441,53.2163,269.1486,83.3345,276.7811,0.00010547,1.391e-05,0.0,0 STARLINK-4549,1 53433U 22097AX  23245.80618437  .00001391  00000-0  10547-3 0  9995,2 53433  53.2163 269.1486 0001441  83.3345 276.7811 15.08846628 60042,6917.86,95.437,540.722,538.728,0.0
53433.0,STARLINK-4549,PAYLOAD,2023-09-03 01:42:26,15.0884775,0.0001388,53.217,267.959,84.3674,275.7476,7.5445e-05,9.13e-06,0.0,0 STARLINK-4549,1 53433U 22097AX  23246.07114333  .00000913  00000-0  75445-4 0  9999,2 53433  53.2170 267.9590 0001388  84.3674 275.7476 15.08847750 59623,6917.857,95.437,540.682,538.762,0.0
53433.0,STARLINK-4549,PAYLOAD,2023-09-03 08:03:59,15.08840461,0.0001477,53.2155,266.7689,90.0556,270.0605,3.4328e-05,2.58e-06,0.0,0 STARLINK-4549,1 53433U 22097AX  23246.33610963  .00000258  00000-0  34328-4 0  9995,2 53433  53.2155 266.7689 0001477  90.0556 270.0605 15.08840461 59662,6917.879,95.438,540.766,538.722,0.0
